NORAD_CAT_ID,OBJECT_NAME,OBJECT_TYPE,EPOCH,MEAN_MOTION,ECCENTRICITY,INCLINATION,RA_OF_ASC_NODE,ARG_OF_PERICENTER,MEAN_ANOMALY,BSTAR,MEAN_MOTION_DOT,MEAN_MOTION_DDOT,TLE_LINE0,TLE_LINE1,TLE_LINE2,SEMIMAJOR_AXIS,PERIOD,APOGEE,PERIGEE,DECAYED
52333.0,STARLINK-3847,PAYLOAD,2024-03-06 20:11:00,15.08834192,0.0001279,53.2172,259.007,74.1046,286.0087,-0.00011788,-2.163e-05,0.0,0 STARLINK-3847,1 52333U 22045C   24066.84097611 -.00002163  00000-0 -11788-3 0  9995,2 52333  53.2172 259.0070 0001279  74.1046 286.0087 15.08834192104997,6917.898,95.438,540.648,538.878,0.0
52333.0,STARLINK-3847,PAYLOAD,2024-03-07 12:04:51,15.08836195,0.0001009,53.2163,256.0346,92.0519,268.0588,5.4854e-06,-2e-06,0.0,0 STARLINK-3847,1 52333U 22045C   24067.50337408 -.00000200  00000-0  54854-5 0  9992,2 52333  53.2163 256.0346 0001009  92.0519 268.0588 15.08836195105098,6917.892,95.438,540.455,539.059,0.0
52333.0,STARLINK-3847,PAYLOAD,2024-03-08 05:34:05,15.08839623,0.0001063,53.2152,252.7623,84.6081,275.5033,7.3716e-05,8.86e-06,0.0,0 STARLINK-3847,1 52333U 22045C   24068.23201169  .00000886  00000-0  73716-4 0  9993,2 52333  53.2152 252.7623 0001063  84.6081 275.5033 15.08839623105208,6917.882,95.438,540.482,539.011,0.0
52333.0,STARLINK-3847,PAYLOAD,2024-03-08 18:17:11,15.08838007,0.0001112,53.2155,250.3842,82.8994,277.2125,0.00025542,3.779e-05,0.0,0 STARLINK-3847,1 52333U 22045C   24068.76193603  .00003779  00000-0  25542-3 0  9991,2 52333  53.2155 250.3842 0001112  82.8994 277.2125 15.08838007105280,6917.886,95.438,540.521,538.982,0.0
52333.0,STARLINK-3847,PAYLOAD,2024-03-08 21:27:57,15.08830844,0.0001108,53.2161,249.7899,79.0007,281.111,0.00054302,8.363e-05,0.0,0 STARLINK-3847,1 52333U 22045C   24068.89442000  .00008363  00000-0  54302-3 0  9993,2 52333  53.2161 249.7899 0001108  79.0007 281.1110 15.08830844105301,6917.908,95.438,540.54,539.007,0.0
52333.0,STARLINK-3847,PAYLOAD,2024-03-09 05:24:53,15.08837004,0.0001365,53.2144,248.3025,88.3556,271.7592,0.00016057,2.268e-05,0.0,0 STARLINK-3847,1 52333U 22045C   24069.22561813  .00002268  00000-0  16057-3 0  9998,2 52333  53.2144 248.3025 0001365  88.3556 271.7592 15.08837004105354,6917.89,95.438,540.699,538.81,0.0
52333.0,STARLINK-3847,PAYLOAD,2024-03-09 21:18:44,15.08842516,0.0001429,53.2154,245.3271,95.8607,264.2548,9.0613e-05,1.155e-05,0.0,0 STARLINK-3847,1 52333U 22045C   24069.88801587  .00001155  00000-0  90613-4 0  9990,2 52333  53.2154 245.3271 0001429  95.8607 264.2548 15.08842516105459,6917.873,95.437,540.726,538.749,0.0
52333.0,STARLINK-3847,PAYLOAD,2024-03-10 17:58:45,15.08841898,0.0001214,53.2126,241.4615,91.5607,268.5524,0.00017583,2.512e-05,0.0,0 STARLINK-3847,1 52333U 22045C   24070.74913656  .00002512  00000-0  17583-3 0  9990,2 52333  53.2126 241.4615 0001214  91.5607 268.5524 15.08841898105589,6917.875,95.437,540.579,538.9,0.0
52333.0,STARLINK-3847,PAYLOAD,2024-03-11 21:00:19,15.08836625,0.0001459,53.2155,236.4067,90.0183,270.0976,2.1012e-05,4.6e-07,0.0,0 STARLINK-3847,1 52333U 22045C   24071.87522053  .00000046  00000-0  21012-4 0  9995,2 52333  53.2155 236.4067 0001459  90.0183 270.0976 15.08836625105750,6917.891,95.438,540.765,538.746,0.0
52333.0,STARLINK-3847,PAYLOAD,2024-03-12 17:40:18,15.08868318,0.0001048,53.211,232.5419,97.8973,262.2138,-0.00024006,-4.109e-05,0.0,0 STARLINK-3847,1 52333U 22045C   24072.73633074 -.00004109  00000-0 -24006-3 0  9998,2 52333  53.2110 232.5419 0001048  97.8973 262.2138 15.08868318105886,6917.794,95.436,540.384,538.934,0.0
52333.0,STARLINK-3847,PAYLOAD,2024-03-13 03:12:38,15.08845492,7.78e-05,53.2115,230.7571,78.0138,282.0941,0.00014583,2.034e-05,0.0,0 STARLINK-3847,1 52333U 22045C   24073.13377476  .00002034  00000-0  14583-3 0  9996,2 52333  53.2115 230.7571 0000778  78.0138 282.0941 15.08845492105940,6917.864,95.437,540.267,539.19,0.0
52333.0,STARLINK-3847,PAYLOAD,2024-03-13 17:31:06,15.08854002,9.33e-05,53.2183,228.0807,77.532,282.5776,-0.00023832,-4.08e-05,0.0,0 STARLINK-3847,1 52333U 22045C   24073.72993077 -.00004080  00000-0 -23832-3 0  9994,2 52333  53.2183 228.0807 0000933  77.5320 282.5776 15.08854002106036,6917.838,95.437,540.348,539.057,0.0
52333.0,STARLINK-3847,PAYLOAD,2024-03-15 20:23:27,15.08841686,0.0001377,53.2133,218.565,91.72,268.3949,8.3257e-05,1.037e-05,0.0,0 STARLINK-3847,1 52333U 22045C   24075.84961938  .00001037  00000-0  83257-4 0  9995,2 52333  53.2133 218.5650 0001377  91.7200 268.3949 15.08841686106352,6917.875,95.437,540.693,538.788,0.0
52333.0,STARLINK-3847,PAYLOAD,2024-03-15 21:58:50,15.08845503,0.0001284,53.2156,218.2676,85.0828,275.0311,0.00013943,1.932e-05,0.0,0 STARLINK-3847,1 52333U 22045C   24075.91585795  .00001932  00000-0  13943-3 0  9994,2 52333  53.2156 218.2676 0001284  85.0828 275.0311 15.08845503106362,6917.864,95.437,540.617,538.84,0.0
52333.0,STARLINK-3847,PAYLOAD,2024-03-16 04:20:23,15.08828726,0.0001277,53.2157,217.0781,83.5917,276.522,-5.7084e-05,-1.196e-05,0.0,0 STARLINK-3847,1 52333U 22045C   24076.18082758 -.00001196  00000-0 -57084-4 0  9994,2 52333  53.2157 217.0781 0001277  83.5917 276.5220 15.08828726106409,6917.915,95.438,540.663,538.896,0.0
52333.0,STARLINK-3847,PAYLOAD,2024-03-16 12:17:18,15.08833969,0.0001456,53.2163,215.5913,81.6347,278.481,0.00016074,2.271e-05,0.0,0 STARLINK-3847,1 52333U 22045C   24076.51202403  .00002271  00000-0  16074-3 0  9998,2 52333  53.2163 215.5913 0001456  81.6347 278.4810 15.08833969106457,6917.899,95.438,540.771,538.757,0.0
52333.0,STARLINK-3847,PAYLOAD,2024-03-16 13:52:41,15.08815379,0.0001205,53.2157,215.2944,92.619,267.494,0.00057398,8.853e-05,0.0,0 STARLINK-3847,1 52333U 22045C   24076.57826092  .00008853  00000-0  57398-3 0  9996,2 52333  53.2157 215.2944 0001205  92.6190 267.4940 15.08815379106469,6917.956,95.439,540.654,538.987,0.0
52333.0,STARLINK-3847,PAYLOAD,2024-03-16 21:49:37,15.08833892,0.0001211,53.2154,213.8078,88.9604,271.1527,0.00096061,0.00015031,0.0,0 STARLINK-3847,1 52333U 22045C   24076.90946418  .00015031  00000-0  96061-3 0  9994,2 52333  53.2154 213.8078 0001211  88.9604 271.1527 15.08833892106512,6917.899,95.438,540.602,538.926,0.0
52333.0,STARLINK-3847,PAYLOAD,2024-03-17 13:43:29,15.08845343,0.0001281,53.2149,210.8341,84.7108,275.403,0.00066873,0.00010372,0.0,0 STARLINK-3847,1 52333U 22045C   24077.57186740  .00010372  00000-0  66873-3 0  9993,2 52333  53.2149 210.8341 0001281  84.7108 275.4030 15.08845343106617,6917.864,95.437,540.615,538.843,0.0
52333.0,STARLINK-3847,PAYLOAD,2024-03-17 20:05:01,15.0885594,0.0001275,53.215,209.6453,80.4427,279.6709,0.0015123,0.00023873,0.0,0 STARLINK-3847,1 52333U 22045C   24077.83682615  .00023873  00000-0  15123-2 0  9995,2 52333  53.2150 209.6453 0001275  80.4427 279.6709 15.08855940106656,6917.832,95.437,540.579,538.815,0.0
52333.0,STARLINK-3847,PAYLOAD,2024-03-17 21:40:24,15.08858885,0.0001275,53.2151,209.348,79.706,280.4076,0.0014443,0.00022785,0.0,0 STARLINK-3847,1 52333U 22045C   24077.90306525  .00022785  00000-0  14443-2 0  9991,2 52333  53.2151 209.3480 0001275  79.7060 280.4076 15.08858885106667,6917.823,95.436,540.57,538.806,0.0
52333.0,STARLINK-3847,PAYLOAD,2024-03-18 11:58:53,15.08851258,0.000132,53.2153,206.6713,95.6104,264.5038,0.0011828,0.00018592,0.0,0 STARLINK-3847,1 52333U 22045C   24078.49922728  .00018592  00000-0  11828-2 0  9990,2 52333  53.2153 206.6713 0001320  95.6104 264.5038 15.08851258106753,6917.846,95.437,540.624,538.798,0.0
52333.0,STARLINK-3847,PAYLOAD,2024-03-18 13:34:16,15.08851775,0.0001305,53.2154,206.374,93.9747,266.1394,0.0012506,0.00019678,0.0,0 STARLINK-3847,1 52333U 22045C   24078.56546705  .00019678  00000-0  12506-2 0  9995,2 52333  53.2154 206.3740 0001305  93.9747 266.1394 15.08851775106766,6917.844,95.437,540.612,538.807,0.0
52333.0,STARLINK-3847,PAYLOAD,2024-03-18 18:20:25,15.08858441,0.000131,53.2155,205.482,90.5349,269.5793,0.00153,0.00024158,0.0,0 STARLINK-3847,1 52333U 22045C   24078.76418518  .00024158  00000-0  15300-2 0  9991,2 52333  53.2155 205.4820 0001310  90.5349 269.5793 15.08858441106793,6917.824,95.436,540.595,538.783,0.0
52333.0,STARLINK-3847,PAYLOAD,2024-03-19 02:17:21,15.0885796,0.0001091,53.2156,203.9947,90.2012,269.9105,0.0012498,0.00019668,0.0,0 STARLINK-3847,1 52333U 22045C   24079.09538472  .00019668  00000-0  12498-2 0  9995,2 52333  53.2156 203.9947 0001091  90.2012 269.9105 15.08857960106849,6917.825,95.436,540.445,538.936,0.0
52333.0,STARLINK-3847,PAYLOAD,2024-03-19 11:49:40,15.08859334,0.0001489,53.2156,202.211,98.0718,262.0443,0.0015943,0.0002519,0.0,0 STARLINK-3847,1 52333U 22045C   24079.49282425  .00025190  00000-0  15943-2 0  9998,2 52333  53.2156 202.2110 0001489  98.0718 262.0443 15.08859334106906,6917.821,95.436,540.716,538.656,0.0
52333.0,STARLINK-3847,PAYLOAD,2024-03-19 15:00:26,15.08854817,0.0001413,53.2158,201.6158,96.3137,263.8016,0.00049212,7.556e-05,0.0,0 STARLINK-3847,1 52333U 22045C   24079.62530189  .00007556  00000-0  49212-3 0  9999,2 52333  53.2158 201.6158 0001413  96.3137 263.8016 15.08854817106924,6917.835,95.437,540.678,538.723,0.0
52333.0,STARLINK-3847,PAYLOAD,2024-03-20 08:29:41,15.08838448,0.0001354,53.2168,198.3505,94.8726,265.242,4.0867e-05,3.63e-06,0.0,0 STARLINK-3847,1 52333U 22045C   24080.35394737  .00000363  00000-0  40867-4 0  9995,2 52333  53.2168 198.3505 0001354  94.8726 265.2420 15.08838448107034,6917.885,95.438,540.687,538.813,0.0
52333.0,STARLINK-3847,PAYLOAD,2024-03-20 13:15:50,15.08838778,0.000149,53.2158,197.4505,109.4705,250.6448,0.0001664,2.361e-05,0.0,0 STARLINK-3847,1 52333U 22045C   24080.55266741  .00002361  00000-0  16640-3 0  9991,2 52333  53.2158 197.4505 0001490 109.4705 250.6448 15.08838778107061,6917.884,95.438,540.78,538.718,0.0
52333.0,STARLINK-3847,PAYLOAD,2024-03-20 14:51:13,15.08841147,0.000142,53.2159,197.1532,107.1552,252.9595,0.00027259,4.053e-05,0.0,0 STARLINK-3847,1 52333U 22045C   24080.61890743  .00004053  00000-0  27259-3 0  9991,2 52333  53.2159 197.1532 0001420 107.1552 252.9595 15.08841147107070,6917.877,95.437,540.724,538.76,0.0
